[{"OBJECT_NAME":"STARLINK-5356","OBJECT_ID":"2023-061AW","EPOCH":"2026-03-09T08:49:07.367232","MEAN_MOTION":15.02522148,"ECCENTRICITY":0.00015478,"INCLINATION":43.0034,"RA_OF_ASC_NODE":173.428,"ARG_OF_PERICENTER":276.3739,"MEAN_ANOMALY":83.6928,"EPHEMERIS_TYPE":0,"CLASSIFICATION_TYPE":"U","NORAD_CAT_ID":56418,"ELEMENT_SET_NO":999,"REV_AT_EPOCH":15700,"BSTAR":0.00015285899,"MEAN_MOTION_DOT":1.861e-5,"MEAN_MOTION_DDOT":0},{"OBJECT_NAME":"THORAD DELTA 1 DEB","OBJECT_ID":"1974-089BJ","EPOCH":"2026-03-09T17:26:50.938944","MEAN_MOTION":14.89612235,"ECCENTRICITY":0.00930761,"INCLINATION":102.9252,"RA_OF_ASC_NODE":157.5149,"ARG_OF_PERICENTER":255.4838,"MEAN_ANOMALY":103.6021,"EPHEMERIS_TYPE":0,"CLASSIFICATION_TYPE":"U","NORAD_CAT_ID":8301,"ELEMENT_SET_NO":999,"REV_AT_EPOCH":53411,"BSTAR":0.014617981,"MEAN_MOTION_DOT":0.00154551,"MEAN_MOTION_DDOT":0}]
